ASIASTAR                
1 26107U 00016A   15361.88161649 -.00000341  00000-0  00000+0 0  9990
2 26107   0.5777  79.8096 0005123 201.4382 237.1856  1.00272842 57802
EUTELSAT 16C            
1 26243U 00019A   15362.22656969  .00000083  00000-0  00000+0 0  9999
2 26243   3.2491  69.1462 0003389 212.2868 270.9826  1.00270703 57442
EUTELSAT 36A            
1 26369U 00028A   15361.95349328  .00000146  00000-0  00000+0 0  9995
2 26369   0.0653  15.2110 0005050 268.4585 191.7960  1.00274831 57135
TDRS 8                  
1 26388U 00034A   15361.65466488 -.00000238  00000-0  00000+0 0  9990
2 26388   6.5606  60.7878 0006580 192.2537 167.6184  1.00276014 56821
ECHOSTAR 6              
1 26402U 00038A   15362.44860925 -.00000156  00000-0  00000+0 0  9992
2 26402   3.1610  70.0279 0003276 216.9266 234.9315  1.00271827 56570
INTELSAT 9 (IS-9)       
1 26451U 00043A   15361.16596564 -.00000281  00000-0  00000+0 0  9994
2 26451   2.4795  74.0754 0003367 202.7998 195.0738  1.00269277 56491
BRASILSAT B4            
1 26469U 00046A   15360.96893311 -.00000221  00000-0  00000+0 0  9997
2 26469   0.5556  89.0117 0002859 192.8707  78.0755  1.00272237 56281
NILESAT 102             
1 26470U 00046B   15361.20673699 -.00000068  00000-0  00000+0 0  9991
2 26470   0.5702  85.1355 0006495 190.6596 246.9764  1.00272076 56286
ASTRA 2B                
1 26494U 00054A   15361.12067350  .00000144  00000-0  00000+0 0  9992
2 26494   1.1177  80.1564 0003288 201.1884 248.7255  1.00270373 55885
AMC-7 (GE-7)            
1 26495U 00054B   15362.10752485  .00000079  00000-0  00000+0 0  9999
2 26495   0.0450  66.0483 0002586 199.0521  94.8600  1.00272401 55916
NSS-11 (AAP-1)          
1 26554U 00059A   15361.70645263 -.00000354  00000-0  00000+0 0  9997
2 26554   0.0337 304.9712 0001641 353.1359 160.2689  1.00273181 55852
N-SAT-110 (JCSAT-110)   
1 26559U 00060A   15361.88563231 -.00000360  00000-0  00000+0 0  9994
2 26559   0.0140  85.8210 0000294 325.7570 113.3691  1.00271345 55784
AMC-6 (GE-6)            
1 26580U 00067A   15361.27434486 -.00000269  00000-0  00000+0 0  9995
2 26580   0.0192 340.3958 0002729 288.6098 213.1923  1.00272253 55630
INTELSAT 12 (IS-12)     
1 26590U 00068A   15362.14676689  .00000128  00000-0  00000+0 0  9990
2 26590   0.0040 354.1116 0003424 285.2026 274.8133  1.00271324 55454
INTELSAT 1R (IS-1R)     
1 26608U 00072A   15362.17452543 -.00000291  00000-0  00000+0 0  9991
2 26608   0.0225 239.0303 0001081  32.1861 197.9380  1.00268784 55311
ANIK F1                 
1 26624U 00076A   15362.03077220 -.00000083  00000-0  00000+0 0  9992
2 26624   0.0053  61.3722 0001345 174.6318 123.9732  1.00271826 55389
ASTRA 2D                
1 26638U 00081A   15360.77786678  .00000056  00000-0  00000-0 0  9996
2 26638   2.6140  72.6978 0002104 207.9658 151.5582  1.00272424 14557
AMC-8 (GE-8)            
1 26639U 00081B   15362.46518780  .00000096  00000-0  00000+0 0  9995
2 26639   0.0140   7.2856 0002256 270.1174 207.6646  1.00270636 54935
TURKSAT 2A              
1 26666U 01002A   15361.61721065  .00000137  00000-0  00000+0 0  9993
2 26666   0.0729  49.4733 0004308 237.1203  73.3491  1.00272167 54810
SKYNET 4F               
1 26695U 01005B   15359.16825022 -.00000258  00000-0  00000-0 0  9999
2 26695   8.2272  40.6864 0003200 238.2431 200.9694  1.00274607 54519
EUTELSAT 33C            
1 26719U 01011A   15362.15637620  .00000147  00000-0  00000+0 0  9996
2 26719   0.0675 342.8090 0005188 285.3479 277.5309  1.00271304 54236
XM-1 (ROLL)             
1 26761U 01018A   15362.11221269 -.00000265  00000-0  00000+0 0  9996
2 26761   0.0294  71.5638 0000111 172.5937 213.4866  1.00273029 53682
INTELSAT 10 (IS-10)     
1 26766U 01019A   15361.71407411  .00000117  00000-0  00000+0 0  9997
2 26766   0.4049  87.1452 0002689 187.9298 125.3589  1.00273033 53585
INTELSAT 901 (IS-901)   
1 26824U 01024A   15361.84662961 -.00000150  00000-0  00000+0 0  9993
2 26824   0.0189 338.2046 0002957 299.6887 104.8731  1.00271539 53257
ASTRA 2C                
1 26853U 01025A   15361.83873995  .00000038  00000-0  00000+0 0  9990
2 26853   0.0617 306.6523 0003118 320.4066 191.1989  1.00270281 53231
ARTEMIS                 
1 26863U 01029A   15362.27378346  .00000099  00000-0  00000+0 0  9991
2 26863  12.1046  38.8503 0005903 256.2841 281.2215  1.00272115 54057
INTELSAT 902 (IS-902)   
1 26900U 01039A   15361.83717598  .00000024  00000-0  00000+0 0  9999
2 26900   0.0305  50.2572 0002907 238.5309 170.5607  1.00273315 52427
EUTELSAT 8 WEST A       
1 26927U 01042A   15362.28487289 -.00000109  00000-0  00000+0 0  9998
2 26927   0.0639 344.9333 0005910 296.5026 264.9665  1.00273330 52183
DIRECTV 4S              
1 26985U 01052A   15362.24925383 -.00000122  00000-0  00000+0 0  9996
2 26985   0.0204  67.8250 0002657 218.6077 158.4832  1.00271275 51650
INSAT-3C                
1 27298U 02002A   15361.77529360 -.00000086  00000-0  00000+0 0  9991
2 27298   0.0575 274.0623 0003269  12.8988 162.0602  1.00272202 51017
ECHOSTAR 7              
1 27378U 02006A   15361.44070912 -.00000010  00000-0  00000+0 0  9999
2 27378   0.0177 340.4156 0001642 307.0812 207.9471  1.00272634 50719
INTELSAT 904 (IS-904)   
1 27380U 02007A   15362.14538610  .00000040  00000-0  00000+0 0  9997
2 27380   0.0367 299.7582 0003637 343.2749 285.5898  1.00272954 50753
TDRS 9                  
1 27389U 02011A   15362.35275512 -.00000105  00000-0  00000+0 0  9996
2 27389   4.1487  86.8985 0021080 217.2416 267.5306  1.00272101 52092
JCSAT-2A                
1 27399U 02015A   15361.37760618 -.00000175  00000-0  00000+0 0  9995
2 27399   0.0382  59.3182 0001727 241.6616  84.5201  1.00268020 50279
ASTRA 3A                
1 27400U 02015B   15361.42305443  .00000060  00000-0  00000+0 0  9997
2 27400   2.7855  71.4734 0001282 204.0863 155.5025  1.00274048 50367
INTELSAT 903 (IS-903)   
1 27403U 02016A   15362.41593383 -.00000246  00000-0  00000+0 0  9990
2 27403   0.0205  42.9402 0003163 238.3568 290.4972  1.00270472 50308
NSS-7                   
1 27414U 02019A   15361.78894189 -.00000164  00000-0  00000+0 0  9991
2 27414   0.7871  86.0968 0002529 195.6648  78.1991  1.00271292 50225
DIRECTV 5 (TEMPO 1)     
1 27426U 02023A   15362.03857369 -.00000064  00000-0  00000+0 0  9996
2 27426   0.0189 348.7546 0003621 289.8708  81.3236  1.00271579 49965
INTELSAT 905 (IS-905)   
1 27438U 02027A   15362.15946185 -.00000193  00000-0  00000+0 0  9994
2 27438   0.0320  47.1144 0001887 223.4910 218.6347  1.00267361 49614
EXPRESS-A4              
1 27441U 02029A   15362.38597090 -.00000039  00000-0  00000+0 0  9991
2 27441   5.1345  60.1703 0004468 127.9830  36.2402  1.00632548 49624
GALAXY 3C (G-3C)        
1 27445U 02030A   15361.99696359 -.00000160  00000-0  00000+0 0  9996
2 27445   0.0101  11.6830 0001690   3.9312 344.3812  1.00271438 49610
EUTELSAT 5 WEST A       
1 27460U 02035A   15360.74998946 -.00000052  00000-0  00000+0 0  9997
2 27460   0.0380   3.3182 0005979 272.4773  84.1273  1.00272067 49396
N-STAR C                
1 27461U 02035B   15361.81759081 -.00000319  00000-0  00000+0 0  9998
2 27461   3.6236  68.0287 0002699 245.0908 213.2096  1.00271590 49323
EUTELSAT 33D            
1 27499U 02038A   15361.64194072  .00000147  00000-0  00000+0 0  9994
2 27499   0.0583 323.8727 0002329  41.4075 354.7127  1.00274836 48875
ECHOSTAR 8              
1 27501U 02039A   15362.24260582 -.00000250  00000-0  00000+0 0  9992
2 27501   0.0180 304.5559 0003039 336.4225 185.8494  1.00271439 48937
EUTELSAT 12 WEST A      
1 27508U 02040A   15360.78287935 -.00000168  00000-0  00000+0 0  9997
2 27508   0.0663  15.2693 0001570 193.3755 151.3377  1.00107711 48895
METEOSAT-8 (MSG-1)      
1 27509U 02040B   15362.28700822  .00000009  00000-0  00000+0 0  9993
2 27509   3.8962  60.3890 0001377 227.7592 275.1171  1.00271562 48900
INTELSAT 906 (IS-906)   
1 27513U 02041A   15361.83686531  .00000006  00000-0  00000+0 0  9996
2 27513   0.0284  36.8070 0003171 252.5538 172.0208  1.00272177 48627
KODAMA (DRTS)           
1 27516U 02042B   15361.77050140 -.00000249  00000-0  00000+0 0  9994
2 27516   4.0587  65.3115 0002790 225.5708 173.1745  1.00272312 48700
KALPANA-1 (METSAT 1)    
1 27525U 02043A   15361.69173400 -.00000092  00000-0  00000+0 0  9997
2 27525   5.4303  58.9790 0015613 217.2687 142.4836  1.00272541 48692
HISPASAT 1D             
1 27528U 02044A   15361.40022692 -.00000225  00000-0  00000+0 0  9994
2 27528   0.0263 335.6964 0005740 312.1473 281.8029  1.00271394 48593
TDRS 10                 
1 27566U 02055A   15362.38473515  .00000072  00000-0  00000+0 0  9999
2 27566   4.0895  60.8564 0011508 211.3016 148.4351  1.00274598 47881
NSS-6                   
1 27603U 02057A   15361.81654645 -.00000278  00000-0  00000+0 0  9994
2 27603   0.0198  63.7956 0003302 207.8373 213.2833  1.00270221 47774
NIMIQ 2                 
1 27632U 02062A   15360.61306080  .00000128  00000-0  00000+0 0  9999
2 27632   0.8859  85.1860 0000707 321.6763 313.1338  1.00270080 47520
INTELSAT 907 (IS-907)   
1 27683U 03007A   15361.80988513 -.00000212  00000-0  00000+0 0  9999
2 27683   0.0218  12.7291 0003090 264.3201  82.9157  1.00268732 47047
INSAT-3A                
1 27714U 03013A   15361.77004300 -.00000267  00000-0  00000+0 0  9990
2 27714   0.0655 269.6710 0000407 238.7730 318.1886  1.00270347 46606
GALAXY 12 (G-12)        
1 27715U 03013B   15361.36464132  .00000049  00000-0  00000+0 0  9996
2 27715   0.0447 181.7310 0002504  90.1384 185.9262  1.00273894 46654
ASIASAT 4               
1 27718U 03014A   15361.94044723 -.00000368  00000-0  00000+0 0  9999
2 27718   0.0065 311.5483 0001026 304.8412 300.3795  1.00274435 46579
HELLAS-SAT 2            
1 27811U 03020A   15361.90381100  .00000143  00000-0  00000+0 0  9999
2 27811   0.0140  58.4624 0003731 223.7098 178.2511  1.00274161 46007
AMC-9 (GE-12)           
1 27820U 03024A   15362.54672678 -.00000224  00000-0  00000+0 0  9998
2 27820   0.0140   3.9978 0002841 271.1257 295.3917  1.00271416 45997
